[{"OBJECT_NAME":"COSMOS 2570","OBJECT_ID":"2023-165A","EPOCH":"2026-03-09T22:28:49.439712","MEAN_MOTION":13.9667423,"ECCENTRICITY":0.00055388,"INCLINATION":67.1495,"RA_OF_ASC_NODE":170.6508,"ARG_OF_PERICENTER":278.5801,"MEAN_ANOMALY":81.4656,"EPHEMERIS_TYPE":0,"CLASSIFICATION_TYPE":"U","NORAD_CAT_ID":58148,"ELEMENT_SET_NO":999,"REV_AT_EPOCH":12077,"BSTAR":2.806806e-5,"MEAN_MOTION_DOT":-3.6e-7,"MEAN_MOTION_DDOT":0},{"OBJECT_NAME":"OPS 5712 (P\/L 152)","OBJECT_ID":"1967-053G","EPOCH":"2026-03-09T21:35:28.776768","MEAN_MOTION":13.9850375,"ECCENTRICITY":0.00104327,"INCLINATION":69.9723,"RA_OF_ASC_NODE":263.4447,"ARG_OF_PERICENTER":278.8846,"MEAN_ANOMALY":182.1725,"EPHEMERIS_TYPE":0,"CLASSIFICATION_TYPE":"U","NORAD_CAT_ID":2873,"ELEMENT_SET_NO":999,"REV_AT_EPOCH":99463,"BSTAR":0.00010675304,"MEAN_MOTION_DOT":9.9e-7,"MEAN_MOTION_DDOT":0}]
